[
    {
        "Altitude(m)": 617719.7284938373,
        "Argument of Periapsis(deg)": 0.0,
        "Eccentricity": 0.0,
        "Inclination(deg)": 60.0,
        "Latitude(deg)": -41.102525187070334,
        "Longitude(deg)": 140.09456895110128,
        "Mean Anomaly(deg)": 229.09090000000003,
        "RAAN(deg)": 30.0,
        "Satellite Name": "Test1 146",
        "Satellite Number": 146,
        "Semi-Major Axis(m)": 6980739.136638005,
        "Time(s)": 0
    },
    {
        "Altitude(m)": 617911.2646046457,
        "Argument of Periapsis(deg)": 0.00010418945913296404,
        "Eccentricity": 0.0,
        "Inclination(deg)": 60.0,
        "Latitude(deg)": -41.56571797174305,
        "Longitude(deg)": 140.59897332854678,
        "Mean Anomaly(deg)": 229.71100614546188,
        "RAAN(deg)": 29.99957995086026,
        "Satellite Name": "Test1 146",
        "Satellite Number": 146,
        "Semi-Major Axis(m)": 6980739.136638005,
        "Time(s)": 10
    }
]